#aV2024 10  4  0  0  0.00000000     288 DD+AD WGS84 FIT  NGA
## 2334 432000.00000000   300.00000000 60587 0.0000000000000
+   31     2  3  4  5  6  7  8  9 10 11 12 13 14 15 16 17 18
+         19 20 21 22 23 24 25 26 27 28 29 30 31 32  0  0  0
+          0  0  0  0  0  0  0  0  0  0  0  0  0  0  0  0  0
+          0  0  0  0  0  0  0  0  0  0  0  0  0  0  0  0  0
+          0  0  0  0  0  0  0  0  0  0  0  0  0  0  0  0  0
++         2  2  2  2  2  2  2  2  2  2  2  2  2  2  2  2  2
++         2  2  2  2  2  2  2  2  2  2  2  2  2  2  0  0  0
++         0  0  0  0  0  0  0  0  0  0  0  0  0  0  0  0  0
++         0  0  0  0  0  0  0  0  0  0  0  0  0  0  0  0  0
++         0  0  0  0  0  0  0  0  0  0  0  0  0  0  0  0  0
%c cc cc ccc ccc cccc cccc cccc cccc ccccc ccccc ccccc ccccc
%c cc cc ccc ccc cccc cccc cccc cccc ccccc ccccc ccccc ccccc
%f  0.0000000  0.000000000  0.00000000000  0.000000000000000
%f  0.0000000  0.000000000  0.00000000000  0.000000000000000
%i    0    0    0    0      0      0      0      0         0
%i    0    0    0    0      0      0      0      0         0
/*      NGA, ST. LOUIS,MO.                                  
/*   EPHEMERIS COMPUTED FROM 2 DAYS OF DATA                 
/*   EPOCHA v9 SMOOTHER                                     
/*   G2296 IERS2010 SATIGS SATAPC                           
*  2024 10  4 20 15  0.00000000
P  2 -22936.825950 -13750.759628    818.789993   -344.134716                    
V  2    846.314645  -2216.082618 -31653.163909      0.081622                    
P  3 -12733.278413  -9861.517689  20976.284789    559.812784                    
V  3   3996.915331 -26634.164410  -9911.063449      0.123912                    
P  4 -21500.362902  -3153.538908  15384.843386    455.787975                    
V  4  17507.738013  -8647.056494  22569.511399      0.069146                    
P  5   6057.409222  23266.856986 -11395.848615   -188.740492                    
V  5  -3116.636727  14005.309136  27438.350907     -0.012224                    
P  6  -6162.505899  13555.475501  22052.289822    -15.064045                    
V  6 -22073.047863 -16845.246606   4303.033212     -0.270635                    
P  7 -21557.106941  -2807.280593 -15031.368583    -30.782487                    
V  7 -14609.248222 -13644.748293  22258.797022      0.037229                    
P  8 -12324.977849 -10837.300670 -21070.966412    374.109392                    
V  8  23720.625393 -11707.932100  -7462.997018      0.120601                    
P  9 -24950.096160   6150.289551   6747.517686    384.565140                    
V  9   6782.470560  -6051.160829  30112.904091      0.163770                    
P 10  10332.832725 -21284.082977 -11502.169821   -147.198148                    
V 10    148.666348  15158.746442 -27732.943750     -0.130116                    
P 11   8301.403722  20343.229701  14999.000669   -741.154462                    
V 11 -15783.189215 -10657.271808  23177.559667     -0.033844                    
P 12  10940.042975  14276.773382  19276.334805   -542.818463                    
V 12  -6033.917771  24365.156693 -14368.165496     -0.026994                    
P 13   2945.700542  14807.007169 -22076.191076    679.869785                    
V 13 -26584.509869   6845.754549   1287.196910      0.018977                    
P 14 -13034.703652  18049.088471 -14267.146484    510.289479                    
V 14     10.585876 -18514.173566 -23581.052469      0.084603                    
P 15  13780.920652   9693.625153 -21084.258736    211.912424                    
V 15 -21376.499829  14199.271073  -7473.733240      0.044329                    
P 16   -537.923703 -25125.146898  -8191.404465   -163.528738                    
V 16   4918.116322  -9250.856236  29702.973887      0.100596                    
P 17 -20715.109302  14196.288271   9337.301615    606.322241                    
V 17 -11279.526967   1717.424898 -28767.008572     -0.123760                    
P 18  20653.745498   1777.665631 -16710.879541   -656.660128                    
V 18  15768.321745  14153.370678  20744.254239     -0.016269                    
P 19 -13706.025377  15763.266986  15999.449576    546.428290                    
V 19 -20461.487348   4055.613510 -21739.906804      0.047628                    
P 20   1253.434362  26610.953530    385.798295    369.989671                    
V 20  -2873.855102   -238.559151  31538.129076     -0.003588                    
P 21 -20653.045256 -16773.643458  -4899.689392    100.446478                    
V 21   6568.305299   1822.846789 -30288.364286     -0.007679                    
P 22  -9857.621393  23814.425288  -6630.151356    -68.093954                    
V 22   -604.034151  -9216.058252 -30047.488613     -0.034760                    
P 23  14462.578745  -9117.675347 -20230.357549    334.567388                    
V 23  -1460.583592  25744.393222 -12844.918338      0.082502                    
P 24  21829.808477  15390.821276  -2440.317983   -485.664571                    
V 24  -3858.705045   1454.943633 -30697.994464      0.009004                    
P 25  15313.919784    366.213238  21347.153998    499.594036                    
V 25  -2586.637399  27853.055699   1613.522598     -0.000603                    
P 26   4564.343671 -25472.462081   4839.086114     63.688517                    
V 26   3774.231272   6588.617267  30490.252861     -0.090655                    
P 27   -494.811829 -16090.997718 -21350.262145    -34.327761                    
V 27  24629.400732  -9841.030819   7361.943532     -0.003088                    
P 28   8161.595446 -12821.710747  21768.835169   -434.604346                    
V 28  22656.177808  15882.830203    863.694423     -0.132160                    
P 29  25085.206949  -2249.799197   8592.416502   -573.522809                    
V 29  -9622.306674   5640.440782  29302.137781      0.026171                    
P 30 -15186.595373   7386.165226 -20401.585004   -308.773244                    
V 30 -20448.497167 -16540.862614   8900.087547      0.073642                    
P 31  -3468.046909 -18904.462972  17930.304197   -223.845865                    
V 31  19577.597583  12969.340823  17606.652337      0.005137                    
P 32  18628.846543 -15905.242065  10224.452558   -590.417445                    
V 32  12691.103731  -2760.501205 -28206.617238      0.041773                    
EOF
